{"type": "FeatureCollection", "features": [ {"type": "Feature", "properties": {"norad_id": 43648, "name": "BEIDOU-3 M15 (C34)", "group": "gnss", "lat": -50.9254190287302, "lon": -171.49153697356346, "alt_km": 21540.26297612531, "timestamp": "2025-12-24T11:33:00.258895+00:00", "meta": {"OBJECT_NAME": "BEIDOU-3 M15 (C34)", "OBJECT_ID": "2018-078B", "EPOCH": "2025-12-23T00:43:09.285312", "MEAN_MOTION": 1.86232355, "ECCENTRICITY": 0.00040598, "INCLINATION": 54.2483, "RA_OF_ASC_NODE": 306.1625, "ARG_OF_PERICENTER": 19.7636, "MEAN_ANOMALY": 340.2561, "EPHEMERIS_TYPE": 0, "CLASSIFICATION_TYPE": "U", "NORAD_CAT_ID": 43648, "ELEMENT_SET_NO": 999, "REV_AT_EPOCH": 4889, "BSTAR": 0, "MEAN_MOTION_DOT": -5.4e-07, "MEAN_MOTION_DDOT": 0}, "tle": {"line1": "1 43648U 18078B   25357.02996858 -.00000054  00000+0  00000+0 0  9996", "line2": "2 43648  54.2483 306.1625 0004059  19.7636 340.2561  1.86232355 48891"}}, "geometry": {"type": "Point", "coordinates": [-171.49153697356346, -50.9254190287302]}}, {"type": "Feature", "properties": {"norad_id": 43683, "name": "BEIDOU-3 G1 (C59)", "group": "gnss", "lat": -2.1777660219150436, "lon": 46.47733086072724, "alt_km": 35788.808697600245, "timestamp": "2025-12-24T11:33:00.258914+00:00", "meta": {"OBJECT_NAME": "BEIDOU-3 G1 (C59)", "OBJECT_ID": "2018-085A", "EPOCH": "2025-12-24T03:28:38.546112", "MEAN_MOTION": 1.00266949, "ECCENTRICITY": 0.0001466, "INCLINATION": 2.6345, "RA_OF_ASC_NODE": 102.6299, "ARG_OF_PERICENTER": 43.8286, "MEAN_ANOMALY": 138.5945, "EPHEMERIS_TYPE": 0, "CLASSIFICATION_TYPE": "U", "NORAD_CAT_ID": 43683, "ELEMENT_SET_NO": 999, "REV_AT_EPOCH": 2630, "BSTAR": 0, "MEAN_MOTION_DOT": -2.59e-06, "MEAN_MOTION_DDOT": 0}, "tle": {"line1": "1 43683U 18085A   25358.14489058 -.00000259  00000+0  00000+0 0  9993", "line2": "2 43683   2.6345 102.6299 0001466  43.8286 138.5945  1.00266949 26306"}}, "geometry": {"type": "Point", "coordinates": [46.47733086072724, -2.1777660219150436]}}, {"type": "Feature", "properties": {"norad_id": 43687, "name": "COSMOS 2529 (757)", "group": "gnss", "lat": -60.90862115381177, "lon": 78.52139118691225, "alt_km": 19118.713210183963, "timestamp": "2025-12-24T11:33:00.258931+00:00", "meta": {"OBJECT_NAME": "COSMOS 2529 (757)", "OBJECT_ID": "2018-086A", "EPOCH": "2025-12-23T05:01:04.327104", "MEAN_MOTION": 2.13102131, "ECCENTRICITY": 0.0006897, "INCLINATION": 64.2927, "RA_OF_ASC_NODE": 198.5346, "ARG_OF_PERICENTER": 253.659, "MEAN_ANOMALY": 106.3281, "EPHEMERIS_TYPE": 0, "CLASSIFICATION_TYPE": "U", "NORAD_CAT_ID": 43687, "ELEMENT_SET_NO": 999, "REV_AT_EPOCH": 5553, "BSTAR": 0, "MEAN_MOTION_DOT": 9.5e-07, "MEAN_MOTION_DDOT": 0}, "tle": {"line1": "1 43687U 18086A   25357.20907786  .00000095  00000+0  00000+0 0  9994", "line2": "2 43687  64.2927 198.5346 0006897 253.6590 106.3281  2.13102131 55539"}}, "geometry": {"type": "Point", "coordinates": [78.52139118691225, -60.90862115381177]}}, {"type": "Feature", "properties": {"norad_id": 43706, "name": "BEIDOU-3 M17 (C36)", "group": "gnss", "lat": 26.489670813404757, "lon": -12.88595072815414, "alt_km": 21540.98906931055, "timestamp": "2025-12-24T11:33:00.258972+00:00", "meta": {"OBJECT_NAME": "BEIDOU-3 M17 (C36)", "OBJECT_ID": "2018-093A", "EPOCH": "2025-12-22T11:03:17.644896", "MEAN_MOTION": 1.86228432, "ECCENTRICITY": 0.00060427, "INCLINATION": 54.173, "RA_OF_ASC_NODE": 188.2918, "ARG_OF_PERICENTER": 307.405, "MEAN_ANOMALY": 284.4943, "EPHEMERIS_TYPE": 0, "CLASSIFICATION_TYPE": "U", "NORAD_CAT_ID": 43706, "ELEMENT_SET_NO": 999, "REV_AT_EPOCH": 4824, "BSTAR": 0, "MEAN_MOTION_DOT": 9.4e-07, "MEAN_MOTION_DDOT": 0}, "tle": {"line1": "1 43706U 18093A   25356.46062089  .00000094  00000+0  00000+0 0  9998", "line2": "2 43706  54.1730 188.2918 0006042 307.4050 284.4943  1.86228432 48248"}}, "geometry": {"type": "Point", "coordinates": [-12.88595072815414, 26.489670813404757]}}, {"type": "Feature", "properties": {"norad_id": 43707, "name": "BEIDOU-3 M18 (C37)", "group": "gnss", "lat": -44.22108376921339, "lon": 52.914317742053804, "alt_km": 21540.76086836231, "timestamp": "2025-12-24T11:33:00.258992+00:00", "meta": {"OBJECT_NAME": "BEIDOU-3 M18 (C37)", "OBJECT_ID": "2018-093B", "EPOCH": "2025-12-23T01:12:21.238848", "MEAN_MOTION": 1.86226616, "ECCENTRICITY": 0.0006147, "INCLINATION": 54.1741, "RA_OF_ASC_NODE": 188.2636, "ARG_OF_PERICENTER": 354.1254, "MEAN_ANOMALY": 5.9078, "EPHEMERIS_TYPE": 0, "CLASSIFICATION_TYPE": "U", "NORAD_CAT_ID": 43707, "ELEMENT_SET_NO": 999, "REV_AT_EPOCH": 4825, "BSTAR": 0, "MEAN_MOTION_DOT": 9.6e-07, "MEAN_MOTION_DDOT": 0}, "tle": {"line1": "1 43707U 18093B   25357.05024582  .00000096  00000+0  00000+0 0  9993", "line2": "2 43707  54.1741 188.2636 0006147 354.1254   5.9078  1.86226616 48257"}}, "geometry": {"type": "Point", "coordinates": [52.914317742053804, -44.22108376921339]}}, {"type": "Feature", "properties": {"norad_id": 43873, "name": "GPS BIII-1  (PRN 04)", "group": "gnss", "lat": -15.41444865628561, "lon": 88.20304294953125, "alt_km": 20267.827603969527, "timestamp": "2025-12-24T11:33:00.259010+00:00", "meta": {"OBJECT_NAME": "GPS BIII-1  (PRN 04)", "OBJECT_ID": "2018-109A", "EPOCH": "2025-12-24T00:11:38.701248", "MEAN_MOTION": 2.00553951, "ECCENTRICITY": 0.0037615, "INCLINATION": 55.5728, "RA_OF_ASC_NODE": 99.1026, "ARG_OF_PERICENTER": 195.5466, "MEAN_ANOMALY": 163.7899, "EPHEMERIS_TYPE": 0, "CLASSIFICATION_TYPE": "U", "NORAD_CAT_ID": 43873, "ELEMENT_SET_NO": 999, "REV_AT_EPOCH": 5155, "BSTAR": 0, "MEAN_MOTION_DOT": 1.5e-07, "MEAN_MOTION_DDOT": 0}, "tle": {"line1": "1 43873U 18109A   25358.00808682  .00000015  00000+0  00000+0 0  9993", "line2": "2 43873  55.5728  99.1026 0037615 195.5466 163.7899  2.00553951 51553"}}, "geometry": {"type": "Point", "coordinates": [88.20304294953125, -15.41444865628561]}}, {"type": "Feature", "properties": {"norad_id": 44231, "name": "BEIDOU-2 G8 (C01)", "group": "gnss", "lat": -0.6644857699016317, "lon": 51.10807374435542, "alt_km": 35777.67004946922, "timestamp": "2025-12-24T11:33:00.259040+00:00", "meta": {"OBJECT_NAME": "BEIDOU-2 G8 (C01)", "OBJECT_ID": "2019-027A", "EPOCH": "2025-12-24T00:58:21.629568", "MEAN_MOTION": 1.00274951, "ECCENTRICITY": 0.0008303, "INCLINATION": 1.6888, "RA_OF_ASC_NODE": 74.7343, "ARG_OF_PERICENTER": 259.1988, "MEAN_ANOMALY": 277.9784, "EPHEMERIS_TYPE": 0, "CLASSIFICATION_TYPE": "U", "NORAD_CAT_ID": 44231, "ELEMENT_SET_NO": 999, "REV_AT_EPOCH": 2432, "BSTAR": 0, "MEAN_MOTION_DOT": -2.26e-06, "MEAN_MOTION_DDOT": 0}, "tle": {"line1": "1 44231U 19027A   25358.04052812 -.00000226  00000+0  00000+0 0  9997", "line2": "2 44231   1.6888  74.7343 0008303 259.1988 277.9784  1.00274951 24325"}}, "geometry": {"type": "Point", "coordinates": [51.10807374435542, -0.6644857699016317]}}, {"type": "Feature", "properties": {"norad_id": 44299, "name": "COSMOS 2534 (758)", "group": "gnss", "lat": 27.158674681657057, "lon": -147.23069584512388, "alt_km": 19133.14498997614, "timestamp": "2025-12-24T11:33:00.259059+00:00", "meta": {"OBJECT_NAME": "COSMOS 2534 (758)", "OBJECT_ID": "2019-030A", "EPOCH": "2025-12-24T03:52:14.937600", "MEAN_MOTION": 2.13102191, "ECCENTRICITY": 0.0008597, "INCLINATION": 64.3662, "RA_OF_ASC_NODE": 198.5079, "ARG_OF_PERICENTER": 283.6548, "MEAN_ANOMALY": 221.2586, "EPHEMERIS_TYPE": 0, "CLASSIFICATION_TYPE": "U", "NORAD_CAT_ID": 44299, "ELEMENT_SET_NO": 999, "REV_AT_EPOCH": 5119, "BSTAR": 0, "MEAN_MOTION_DOT": 9.8e-07, "MEAN_MOTION_DDOT": 0}, "tle": {"line1": "1 44299U 19030A   25358.16128400  .00000098  00000+0  00000+0 0  9991", "line2": "2 44299  64.3662 198.5079 0008597 283.6548 221.2586  2.13102191 51193"}}, "geometry": {"type": "Point", "coordinates": [-147.23069584512388, 27.158674681657057]}}, {"type": "Feature", "properties": {"norad_id": 44337, "name": "BEIDOU-3 IGSO-2 (C39)", "group": "gnss", "lat": -35.98357609536788, "lon": 10.703435733578122, "alt_km": 35645.89443275787, "timestamp": "2025-12-24T11:33:00.259077+00:00", "meta": {"OBJECT_NAME": "BEIDOU-3 IGSO-2 (C39)", "OBJECT_ID": "2019-035A", "EPOCH": "2025-12-23T20:34:24.431808", "MEAN_MOTION": 1.00267916, "ECCENTRICITY": 0.00378021, "INCLINATION": 55.2291, "RA_OF_ASC_NODE": 160.4037, "ARG_OF_PERICENTER": 202.4581, "MEAN_ANOMALY": 157.7229, "EPHEMERIS_TYPE": 0, "CLASSIFICATION_TYPE": "U", "NORAD_CAT_ID": 44337, "ELEMENT_SET_NO": 999, "REV_AT_EPOCH": 2391, "BSTAR": 0, "MEAN_MOTION_DOT": -7.4e-07, "MEAN_MOTION_DDOT": 0}, "tle": {"line1": "1 44337U 19035A   25357.85722722 -.00000074  00000+0  00000+0 0  9996", "line2": "2 44337  55.2291 160.4037 0037802 202.4581 157.7229  1.00267916 23910"}}, "geometry": {"type": "Point", "coordinates": [10.703435733578122, -35.98357609536788]}}, {"type": "Feature", "properties": {"norad_id": 44506, "name": "GPS BIII-2  (PRN 18)", "group": "gnss", "lat": -45.024160531740236, "lon": -158.8862554524359, "alt_km": 20069.99226497626, "timestamp": "2025-12-24T11:33:00.259096+00:00", "meta": {"OBJECT_NAME": "GPS BIII-2  (PRN 18)", "OBJECT_ID": "2019-056A", "EPOCH": "2025-12-23T09:23:28.795200", "MEAN_MOTION": 2.0056658, "ECCENTRICITY": 0.00577459, "INCLINATION": 55.7176, "RA_OF_ASC_NODE": 338.1305, "ARG_OF_PERICENTER": 198.6012, "MEAN_ANOMALY": 332.8304, "EPHEMERIS_TYPE": 0, "CLASSIFICATION_TYPE": "U", "NORAD_CAT_ID": 44506, "ELEMENT_SET_NO": 999, "REV_AT_EPOCH": 4654, "BSTAR": 0, "MEAN_MOTION_DOT": -6.4e-07, "MEAN_MOTION_DDOT": 0}, "tle": {"line1": "1 44506U 19056A   25357.39130550 -.00000064  00000+0  00000+0 0  9997", "line2": "2 44506  55.7176 338.1305 0057745 198.6012 332.8304  2.00566580 46544"}}, "geometry": {"type": "Point", "coordinates": [-158.8862554524359, -45.024160531740236]}}]}